NORAD_CAT_ID,OBJECT_NAME,OBJECT_TYPE,EPOCH,MEAN_MOTION,ECCENTRICITY,INCLINATION,RA_OF_ASC_NODE,ARG_OF_PERICENTER,MEAN_ANOMALY,BSTAR,MEAN_MOTION_DOT,MEAN_MOTION_DDOT,TLE_LINE0,TLE_LINE1,TLE_LINE2,SEMIMAJOR_AXIS,PERIOD,APOGEE,PERIGEE,DECAYED
51996.0,STARLINK-3538,PAYLOAD,2022-12-18 02:40:38,15.08840633,0.0001994,53.2171,265.4887,36.3192,323.7935,2.3761e-05,9.000000000000002e-07,0.0,0 STARLINK-3538,1 51996U 22025AS  22352.11155622  .00000090  00000-0  23761-4 0  9990,2 51996  53.2171 265.4887 0001994  36.3192 323.7935 15.08840633 44668,6917.878000000002,95.438,541.123,538.364,0.0
51996.0,STARLINK-3538,PAYLOAD,2022-12-18 05:51:24,15.08837009,0.0001998,53.2169,264.8939,36.8005,323.3124,-1.9682e-05,-6.01e-06,0.0,0 STARLINK-3538,1 51996U 22025AS  22352.24403890 -.00000601  00000-0 -19682-4 0  9994,2 51996  53.2169 264.8939 0001998  36.8005 323.3124 15.08837009 43161,6917.89,95.438,541.137,538.372,0.0
51996.0,STARLINK-3538,PAYLOAD,2022-12-18 20:09:53,15.0883117,0.0002035,53.2169,262.2181,39.0126,321.1013,9.7147e-05,1.258e-05,0.0,0 STARLINK-3538,1 51996U 22025AS  22352.84020525  .00001258  00000-0  97147-4 0  9999,2 51996  53.2169 262.2181 0002035  39.0126 321.1013 15.08831170 43250,6917.906999999997,95.438,541.18,538.365,0.0
51996.0,STARLINK-3538,PAYLOAD,2022-12-19 00:56:03,15.08831656,0.0002057,53.217,261.3262,38.3441,321.7697,9.2927e-05,1.191e-05,0.0,0 STARLINK-3538,1 51996U 22025AS  22353.03892615  .00001191  00000-0  92927-4 0  9995,2 51996  53.2170 261.3262 0002057  38.3441 321.7697 15.08831656 44803,6917.906,95.438,541.194,538.3480000000002,0.0
51996.0,STARLINK-3538,PAYLOAD,2022-12-19 10:28:20,15.08860623,0.0001996,53.2171,259.54200000000003,32.6136,327.4979,-0.00028136,-4.766e-05,0.0,0 STARLINK-3538,1 51996U 22025AS  22353.43634963 -.00004766  00000-0 -28136-3 0  9992,2 51996  53.2171 259.5420 0001996  32.6136 327.4979 15.08860623 44866,6917.816999999999,95.436,541.063,538.302,0.0
51996.0,STARLINK-3538,PAYLOAD,2022-12-19 18:25:17,15.08845049,0.0002283,53.2175,258.0552,31.6796,328.4333,0.00029687,4.44e-05,0.0,0 STARLINK-3538,1 51996U 22025AS  22353.76756273  .00004440  00000-0  29687-3 0  9996,2 51996  53.2175 258.0552 0002283  31.6796 328.4333 15.08845049 43398,6917.865,95.437,541.309,538.151,0.0
51996.0,STARLINK-3538,PAYLOAD,2022-12-19 20:00:40,15.08845782,0.0002139,53.2175,257.7575,36.4706,323.6431,0.00025228,3.73e-05,0.0,0 STARLINK-3538,1 51996U 22025AS  22353.83380160  .00003730  00000-0  25228-3 0  9990,2 51996  53.2175 257.7575 0002139  36.4706 323.6431 15.08845782 44923,6917.863,95.437,541.207,538.248,0.0
51996.0,STARLINK-3538,PAYLOAD,2022-12-20 10:19:07,15.08865412,0.0002069,53.2174,255.0811,37.7323,322.3814,0.00052442,8.074e-05,0.0,0 STARLINK-3538,1 51996U 22025AS  22354.42995102  .00008074  00000-0  52442-3 0  9998,2 51996  53.2174 255.0811 0002069  37.7323 322.3814 15.08865412 45011,6917.803000000001,95.436,541.099,538.236,0.0
51996.0,STARLINK-3538,PAYLOAD,2022-12-20 19:51:26,15.08846367,0.00021,53.217,253.2968,41.55,318.5651,-0.00030287,-5.106e-05,0.0,0 STARLINK-3538,1 51996U 22025AS  22354.82739140 -.00005106  00000-0 -30287-3 0  9998,2 51996  53.2170 253.2968 0002100  41.5500 318.5651 15.08846367 45076,6917.861,95.437,541.179,538.273,0.0
51996.0,STARLINK-3538,PAYLOAD,2022-12-21 11:45:18,15.08837567,0.0002076,53.2168,250.3232,47.3857,312.731,7.1659e-05,8.52e-06,0.0,0 STARLINK-3538,1 51996U 22025AS  22355.48979411  .00000852  00000-0  71659-4 0  9998,2 51996  53.2168 250.3232 0002076  47.3857 312.7310 15.08837567 43658,6917.888000000001,95.438,541.189,538.317,0.0
51996.0,STARLINK-3538,PAYLOAD,2022-12-22 02:03:46,15.08841604,0.0002111,53.2154,247.6478,46.8696,313.2472,0.0002852,4.254e-05,0.0,0 STARLINK-3538,1 51996U 22025AS  22356.08595668  .00004254  00000-0  28520-3 0  9991,2 51996  53.2154 247.6478 0002111  46.8696 313.2472 15.08841604 45260,6917.875,95.437,541.201,538.28,0.0
51996.0,STARLINK-3538,PAYLOAD,2022-12-22 10:00:43,15.08825768,0.000204,53.2163,246.1608,49.4627,310.6542,5.5346e-05,5.92e-06,0.0,0 STARLINK-3538,1 51996U 22025AS  22356.41716465  .00000592  00000-0  55346-4 0  9996,2 51996  53.2163 246.1608 0002040  49.4627 310.6542 15.08825768 45311,6917.924,95.438,541.2,538.378,0.0
51996.0,STARLINK-3538,PAYLOAD,2022-12-22 21:08:25,15.08820731,0.0001852,53.2153,244.0794,48.488,311.6271,5.7754e-05,6.31e-06,0.0,0 STARLINK-3538,1 51996U 22025AS  22356.88085185  .00000631  00000-0  57754-4 0  9994,2 51996  53.2153 244.0794 0001852  48.4880 311.6271 15.08820731 43866,6917.939,95.439,541.085,538.523,0.0
51996.0,STARLINK-3538,PAYLOAD,2022-12-23 09:51:30,15.08850934,0.0001873,53.2147,241.7008,51.7322,308.3838,0.00089846,0.00014044,0.0,0 STARLINK-3538,1 51996U 22025AS  22357.41076877  .00014044  00000-0  89846-3 0  9991,2 51996  53.2147 241.7008 0001873  51.7322 308.3838 15.08850934 45460,6917.847,95.437,541.008,538.4159999999998,0.0
51996.0,STARLINK-3538,PAYLOAD,2022-12-23 19:23:48,15.08868257,0.0001443,53.2154,239.9154,39.8483,320.2614,0.0011072,0.00017391,0.0,0 STARLINK-3538,1 51996U 22025AS  22357.80820212  .00017391  00000-0  11072-2 0  9997,2 51996  53.2154 239.9154 0001443  39.8483 320.2614 15.08868257 44008,6917.794,95.436,540.6569999999998,538.661,0.0
51996.0,STARLINK-3538,PAYLOAD,2022-12-24 01:45:21,15.08854945,0.0002253,53.2138,238.7281,46.1868,313.931,0.00050488,7.759e-05,0.0,0 STARLINK-3538,1 51996U 22025AS  22358.07316535  .00007759  00000-0  50488-3 0  9997,2 51996  53.2138 238.7281 0002253  46.1868 313.9310 15.08854945 45569,6917.835,95.437,541.258,538.141,0.0
51996.0,STARLINK-3538,PAYLOAD,2022-12-24 11:17:40,15.08846624,0.0001584,53.2139,236.9429,49.7167,310.3963,0.00032224,4.845e-05,0.0,0 STARLINK-3538,1 51996U 22025AS  22358.47060388  .00004845  00000-0  32224-3 0  9994,2 51996  53.2139 236.9429 0001584  49.7167 310.3963 15.08846624 45628,6917.86,95.437,540.821,538.629,0.0
51996.0,STARLINK-3538,PAYLOAD,2022-12-24 17:39:12,15.0883908,0.0001867,53.2141,235.7546,43.4131,316.7008,-4.2326e-05,-9.62e-06,0.0,0 STARLINK-3538,1 51996U 22025AS  22358.73556582 -.00000962  00000-0 -42326-4 0  9992,2 51996  53.2141 235.7546 0001867  43.4131 316.7008 15.08839080 45666,6917.8830000000025,95.438,541.04,538.457,0.0
51996.0,STARLINK-3538,PAYLOAD,2022-12-24 22:25:22,15.08842761,0.0001802,53.2145,234.8616,46.3613,313.7528,0.00016905,2.404e-05,0.0,0 STARLINK-3538,1 51996U 22025AS  22358.93428608  .00002404  00000-0  16905-3 0  9995,2 51996  53.2145 234.8616 0001802  46.3613 313.7528 15.08842761 44173,6917.871999999999,95.437,540.984,538.49,0.0
51996.0,STARLINK-3538,PAYLOAD,2022-12-25 22:16:09,15.08840252,0.0001919,53.2145,230.4005,48.3978,311.7178,-9.0248e-05,-1.724e-05,0.0,0 STARLINK-3538,1 51996U 22025AS  22359.92788869 -.00001724  00000-0 -90248-4 0  9992,2 51996  53.2145 230.4005 0001919  48.3978 311.7178 15.08840252 44321,6917.88,95.438,541.072,538.4169999999998,0.0
51996.0,STARLINK-3538,PAYLOAD,2022-12-26 01:26:56,15.08836643,0.0001935,53.2145,229.8059,46.8626,313.2528,2.653e-05,1.34e-06,0.0,0 STARLINK-3538,1 51996U 22025AS  22360.06037120  .00000134  00000-0  26530-4 0  9991,2 51996  53.2145 229.8059 0001935  46.8626 313.2528 15.08836643 45868,6917.891,95.438,541.094,538.4169999999998,0.0
51996.0,STARLINK-3538,PAYLOAD,2022-12-26 18:56:11,15.08833492,0.0001867,53.2145,226.5351,43.1639,316.95,8.094100000000001e-05,1e-05,0.0,0 STARLINK-3538,1 51996U 22025AS  22360.78901631  .00001000  00000-0  80941-4 0  9996,2 51996  53.2145 226.5351 0001867  43.1639 316.9500 15.08833492 44458,6917.9,95.438,541.057,538.474,0.0
51996.0,STARLINK-3538,PAYLOAD,2022-12-27 07:39:16,15.08837962,0.0001872,53.2157,224.1558,44.4534,315.6608,9.1468e-05,1.168e-05,0.0,0 STARLINK-3538,1 51996U 22025AS  22361.31893524  .00001168  00000-0  91468-4 0  9998,2 51996  53.2157 224.1558 0001872  44.4534 315.6608 15.08837962 46057,6917.887,95.438,541.047,538.457,0.0
51996.0,STARLINK-3538,PAYLOAD,2022-12-27 14:00:48,15.08840217,0.0001858,53.2158,222.9662,42.5261,317.5874,0.0001375999999999,1.902e-05,0.0,0 STARLINK-3538,1 51996U 22025AS  22361.58389441  .00001902  00000-0  13760-3 0  9999,2 51996  53.2158 222.9662 0001858  42.5261 317.5874 15.08840217 44578,6917.88,95.438,541.03,538.4590000000002,0.0
51996.0,STARLINK-3538,PAYLOAD,2022-12-27 23:33:06,15.08850034,0.0001923,53.2144,221.1825,43.5355,316.5789,0.00025081,3.707e-05,0.0,0 STARLINK-3538,1 51996U 22025AS  22361.98132944  .00003707  00000-0  25081-3 0  9991,2 51996  53.2144 221.1825 0001923  43.5355 316.5789 15.08850034 46151,6917.85,95.437,541.045,538.384,0.0
51996.0,STARLINK-3538,PAYLOAD,2022-12-28 17:02:21,15.0883709,0.0002112,53.2151,217.9103,42.5133,317.6022,7.6447e-05,9.29e-06,0.0,0 STARLINK-3538,1 51996U 22025AS  22362.70997577  .00000929  00000-0  76447-4 0  9999,2 51996  53.2151 217.9103 0002112  42.5133 317.6022 15.08837090 46266,6917.889,95.438,541.215,538.293,0.0
51996.0,STARLINK-3538,PAYLOAD,2022-12-28 23:23:55,15.08825554,0.0001961,53.2145,216.7222,44.0114,316.1034,-0.00010377,-1.939e-05,0.0,0 STARLINK-3538,1 51996U 22025AS  22362.97494214 -.00001939  00000-0 -10377-3 0  9991,2 51996  53.2145 216.7222 0001961  44.0114 316.1034 15.08825554 46309,6917.925,95.438,541.146,538.433,0.0
51996.0,STARLINK-3538,PAYLOAD,2022-12-29 07:20:50,15.08828735,0.0001859,53.2149,215.2348,44.3446,315.7695,-9.187e-05,-1.75e-05,0.0,0 STARLINK-3538,1 51996U 22025AS  22363.30614238 -.00001750  00000-0 -91870-4 0  9998,2 51996  53.2149 215.2348 0001859  44.3446 315.7695 15.08828735 44831,6917.915,95.438,541.066,538.494,0.0
51996.0,STARLINK-3538,PAYLOAD,2022-12-29 23:14:42,15.08837409,0.0001966999999999,53.2156,212.2611,46.3124,313.8031,-3.9113e-05,-9.11e-06,0.0,0 STARLINK-3538,1 51996U 22025AS  22363.96854654 -.00000911  00000-0 -39113-4 0  9998,2 51996  53.2156 212.2611 0001967  46.3124 313.8031 15.08837409 46455,6917.888000000001,95.438,541.114,538.393,0.0
